IRIDIUM 155             
1 43573U 18061E   21219.06044308  .00000092  00000-0  25892-4 0  9999
2 43573  86.3932  78.5638 0002505  78.0349 282.1128 14.34218902158928
IRIDIUM 154             
1 43574U 18061F   21219.11118422  .00000094  00000-0  26503-4 0  9997
2 43574  86.3936  78.5915 0002103  93.5159 266.6277 14.34220669158987
IRIDIUM 163             
1 43575U 18061G   21219.09215259  .00000096  00000-0  27165-4 0  9998
2 43575  86.3934  78.5689 0001631  83.1749 276.9633 14.34217749158951
IRIDIUM 156             
1 43576U 18061H   21218.92725748  .00000095  00000-0  26944-4 0  9992
2 43576  86.3934  78.6430 0002031  77.2231 282.9191 14.34218006158922
IRIDIUM 164             
1 43577U 18061J   21219.04776230  .00000090  00000-0  24963-4 0  9993
2 43577  86.3935  78.6059 0001998  91.7615 268.3810 14.34218912158987
IRIDIUM 159             
1 43578U 18061K   21219.08581565  .00000120  00000-0  35965-4 0  9991
2 43578  86.3933  78.5639 0002087  90.7002 269.4433 14.34216450158953
IRIDIUM 180             
1 43922U 19002A   21219.36438490  .00000061  00000-0  14559-4 0  9999
2 43922  86.3985  15.2890 0001920 118.3688 241.7701 14.34217449134608
IRIDIUM 176             
1 43923U 19002B   21219.38624730  .00000133  00000-0  17156-4 0  9992
2 43923  86.6118  15.3128 0002377  92.5462 267.6028 14.72254007138128
IRIDIUM 168             
1 43924U 19002C   21218.86966002  .00000072  00000-0  18670-4 0  9990
2 43924  86.3986  15.5228 0002173  99.6817 260.4625 14.34216829134519
IRIDIUM 173             
1 43925U 19002D   21219.41512721  .00000060  00000-0  14338-4 0  9992
2 43925  86.3983  15.2560 0002112  97.3036 262.8400 14.34217857134579
IRIDIUM 169             
1 43926U 19002E   21219.04983868  .00000007  00000-0 -42828-5 0  9994
2 43926  86.4203  47.0031 0006888  72.9453 287.2499 14.38608876135016
IRIDIUM 172             
1 43927U 19002F   21218.99017049  .00000063  00000-0  15528-4 0  9994
2 43927  86.3983  15.4361 0002087  99.8465 260.2966 14.34218846134529
IRIDIUM 175             
1 43928U 19002G   21218.90428210  .00000149  00000-0  19679-4 0  9998
2 43928  86.6119  15.3354 0001869  93.0389 267.1042 14.72253253138048
IRIDIUM 171             
1 43929U 19002H   21219.38974690  .00000060  00000-0  14322-4 0  9992
2 43929  86.3994  15.3782 0002218  99.1900 260.9547 14.34217045134579
IRIDIUM 170             
1 43930U 19002J   21218.84866673  .00000146  00000-0  19313-4 0  9995
2 43930  86.6117  15.5436 0002339  97.5360 262.6123 14.72254717138050
IRIDIUM 167             
1 43931U 19002K   21219.38340975  .00000063  00000-0  15301-4 0  9999
2 43931  86.3985  15.2786 0002029 112.1051 248.0361 14.34216798134573
